{
  "type": "FeatureCollection",
  "features": [
    {
      "type": "Feature",
      "properties": {
        "norad_id": 36083,
        "name": "IRIDIUM 33 DEB",
        "group": "iridium-33-debris",
        "lat": -7.544399028027863,
        "lon": -148.62205169186888,
        "alt_km": 733.8044571995015,
        "timestamp": "2025-12-20T07:33:51.198987+00:00",
        "meta_object_name": "IRIDIUM 33 DEB",
        "meta_object_id": "1997-051VQ",
        "meta_epoch": "2025-12-16T21:09:41.480640",
        "meta_mean_motion": 14.43222397,
        "meta_eccentricity": 0.00256692,
        "meta_inclination": 86.3437,
        "meta_ra_of_asc_node": 32.3703,
        "meta_arg_of_pericenter": 208.6135,
        "meta_mean_anomaly": 151.3659,
        "meta_ephemeris_type": 0,
        "meta_classification_type": "U",
        "meta_norad_cat_id": 36083,
        "meta_element_set_no": 999,
        "meta_rev_at_epoch": 85509,
        "meta_bstar": 0.00040983827,
        "meta_mean_motion_dot": 1.403e-05,
        "meta_mean_motion_ddot": 0,
        "tle_line1": "1 36083U 97051VQ  25350.88173010  .00001403  00000+0  40984-3 0  9990",
        "tle_line2": "2 36083  86.3437  32.3703 0025669 208.6135 151.3659 14.43222397855098"
      },
      "geometry": {
        "type": "Point",
        "coordinates": [
          -148.62205169186888,
          -7.544399028027863
        ]
      }
    },
    {
      "type": "Feature",
      "properties": {
        "norad_id": 36390,
        "name": "IRIDIUM 33 DEB",
        "group": "iridium-33-debris",
        "lat": 64.92129172949878,
        "lon": 107.95257633792646,
        "alt_km": 622.3593999597697,
        "timestamp": "2025-12-20T07:33:51.198997+00:00",
        "meta_object_name": "IRIDIUM 33 DEB",
        "meta_object_id": "1997-051VU",
        "meta_epoch": "2025-12-18T02:53:50.749728",
        "meta_mean_motion": 14.73679499,
        "meta_eccentricity": 0.00315796,
        "meta_inclination": 86.2911,
        "meta_ra_of_asc_node": 296.9257,
        "meta_arg_of_pericenter": 143.7695,
        "meta_mean_anomaly": 216.5671,
        "meta_ephemeris_type": 0,
        "meta_classification_type": "U",
        "meta_norad_cat_id": 36390,
        "meta_element_set_no": 999,
        "meta_rev_at_epoch": 66341,
        "meta_bstar": 0.00081895703,
        "meta_mean_motion_dot": 5.409e-05,
        "meta_mean_motion_ddot": 0,
        "tle_line1": "1 36390U 97051VU  25352.12072627  .00005409  00000+0  81896-3 0  9999",
        "tle_line2": "2 36390  86.2911 296.9257 0031579 143.7695 216.5671 14.73679499663417"
      },
      "geometry": {
        "type": "Point",
        "coordinates": [
          107.95257633792646,
          64.92129172949878
        ]
      }
    },
    {
      "type": "Feature",
      "properties": {
        "norad_id": 36483,
        "name": "IRIDIUM 33 DEB",
        "group": "iridium-33-debris",
        "lat": 61.60310793510474,
        "lon": 55.97349781420109,
        "alt_km": 727.4988227553304,
        "timestamp": "2025-12-20T07:33:51.199007+00:00",
        "meta_object_name": "IRIDIUM 33 DEB",
        "meta_object_id": "1997-051VZ",
        "meta_epoch": "2025-12-19T21:18:48.500640",
        "meta_mean_motion": 14.45832941,
        "meta_eccentricity": 0.00113113,
        "meta_inclination": 86.3789,
        "meta_ra_of_asc_node": 49.4296,
        "meta_arg_of_pericenter": 106.3745,
        "meta_mean_anomaly": 253.8702,
        "meta_ephemeris_type": 0,
        "meta_classification_type": "U",
        "meta_norad_cat_id": 36483,
        "meta_element_set_no": 999,
        "meta_rev_at_epoch": 65249,
        "meta_bstar": 0.00032658363,
        "meta_mean_motion_dot": 1.179e-05,
        "meta_mean_motion_ddot": 0,
        "tle_line1": "1 36483U 97051VZ  25353.88806135  .00001179  00000+0  32658-3 0  9997",
        "tle_line2": "2 36483  86.3789  49.4296 0011311 106.3745 253.8702 14.45832941652498"
      },
      "geometry": {
        "type": "Point",
        "coordinates": [
          55.97349781420109,
          61.60310793510474
        ]
      }
    },
    {
      "type": "Feature",
      "properties": {
        "norad_id": 36490,
        "name": "IRIDIUM 33 DEB",
        "group": "iridium-33-debris",
        "lat": 67.79566077817003,
        "lon": 16.005667738351818,
        "alt_km": 630.6260059810711,
        "timestamp": "2025-12-20T07:33:51.199017+00:00",
        "meta_object_name": "IRIDIUM 33 DEB",
        "meta_object_id": "1997-051WG",
        "meta_epoch": "2025-12-18T11:20:08.689920",
        "meta_mean_motion": 14.76311439,
        "meta_eccentricity": 0.00053494,
        "meta_inclination": 86.3653,
        "meta_ra_of_asc_node": 7.8778,
        "meta_arg_of_pericenter": 71.1072,
        "meta_mean_anomaly": 289.0726,
        "meta_ephemeris_type": 0,
        "meta_classification_type": "U",
        "meta_norad_cat_id": 36490,
        "meta_element_set_no": 999,
        "meta_rev_at_epoch": 86569,
        "meta_bstar": 0.0014032879,
        "meta_mean_motion_dot": 9.76e-05,
        "meta_mean_motion_ddot": 0,
        "tle_line1": "1 36490U 97051WG  25352.47232280  .00009760  00000+0  14033-2 0  9993",
        "tle_line2": "2 36490  86.3653   7.8778 0005349  71.1072 289.0726 14.76311439865698"
      },
      "geometry": {
        "type": "Point",
        "coordinates": [
          16.005667738351818,
          67.79566077817003
        ]
      }
    },
    {
      "type": "Feature",
      "properties": {
        "norad_id": 36493,
        "name": "IRIDIUM 33 DEB",
        "group": "iridium-33-debris",
        "lat": 51.32669802525618,
        "lon": 12.88049020027941,
        "alt_km": 669.408146465772,
        "timestamp": "2025-12-20T07:33:51.199028+00:00",
        "meta_object_name": "IRIDIUM 33 DEB",
        "meta_object_id": "1997-051WK",
        "meta_epoch": "2025-12-17T18:41:22.418880",
        "meta_mean_motion": 14.65296376,
        "meta_eccentricity": 0.0009595,
        "meta_inclination": 86.357,
        "meta_ra_of_asc_node": 9.4417,
        "meta_arg_of_pericenter": 347.2295,
        "meta_mean_anomaly": 12.8673,
        "meta_ephemeris_type": 0,
        "meta_classification_type": "U",
        "meta_norad_cat_id": 36493,
        "meta_element_set_no": 999,
        "meta_rev_at_epoch": 74592,
        "meta_bstar": 0.00099210888,
        "meta_mean_motion_dot": 5.375e-05,
        "meta_mean_motion_ddot": 0,
        "tle_line1": "1 36493U 97051WK  25351.77873170  .00005375  00000+0  99211-3 0  9997",
        "tle_line2": "2 36493  86.3570   9.4417 0009595 347.2295  12.8673 14.65296376745924"
      },
      "geometry": {
        "type": "Point",
        "coordinates": [
          12.88049020027941,
          51.32669802525618
        ]
      }
    },
    {
      "type": "Feature",
      "properties": {
        "norad_id": 37548,
        "name": "IRIDIUM 33 DEB",
        "group": "iridium-33-debris",
        "lat": -38.88169581340491,
        "lon": -136.97844726762975,
        "alt_km": 717.3483929450913,
        "timestamp": "2025-12-20T07:33:51.199037+00:00",
        "meta_object_name": "IRIDIUM 33 DEB",
        "meta_object_id": "1997-051XH",
        "meta_epoch": "2025-12-15T20:39:30.861504",
        "meta_mean_motion": 14.51326297,
        "meta_eccentricity": 0.00258157,
        "meta_inclination": 86.3522,
        "meta_ra_of_asc_node": 42.0105,
        "meta_arg_of_pericenter": 178.4192,
        "meta_mean_anomaly": 181.71,
        "meta_ephemeris_type": 0,
        "meta_classification_type": "U",
        "meta_norad_cat_id": 37548,
        "meta_element_set_no": 999,
        "meta_rev_at_epoch": 65577,
        "meta_bstar": 0.00067405053,
        "meta_mean_motion_dot": 2.715e-05,
        "meta_mean_motion_ddot": 0,
        "tle_line1": "1 37548U 97051XH  25349.86077386  .00002715  00000+0  67405-3 0  9996",
        "tle_line2": "2 37548  86.3522  42.0105 0025815 178.4192 181.7100 14.51326297655778"
      },
      "geometry": {
        "type": "Point",
        "coordinates": [
          -136.97844726762975,
          -38.88169581340491
        ]
      }
    },
    {
      "type": "Feature",
      "properties": {
        "norad_id": 37550,
        "name": "IRIDIUM 33 DEB",
        "group": "iridium-33-debris",
        "lat": -31.734544780943494,
        "lon": 18.271991740657686,
        "alt_km": 678.1332623936905,
        "timestamp": "2025-12-20T07:33:51.199047+00:00",
        "meta_object_name": "IRIDIUM 33 DEB",
        "meta_object_id": "1997-051XK",
        "meta_epoch": "2025-12-19T08:47:41.172864",
        "meta_mean_motion": 14.67293181,
        "meta_eccentricity": 0.0005615,
        "meta_inclination": 86.3772,
        "meta_ra_of_asc_node": 20.938,
        "meta_arg_of_pericenter": 96.5697,
        "meta_mean_anomaly": 263.6157,
        "meta_ephemeris_type": 0,
        "meta_classification_type": "U",
        "meta_norad_cat_id": 37550,
        "meta_element_set_no": 999,
        "meta_rev_at_epoch": 86430,
        "meta_bstar": 0.00085807,
        "meta_mean_motion_dot": 4.861e-05,
        "meta_mean_motion_ddot": 0,
        "tle_line1": "1 37550U 97051XK  25353.36644876  .00004861  00000+0  85807-3 0  9993",
        "tle_line2": "2 37550  86.3772  20.9380 0005615  96.5697 263.6157 14.67293181864309"
      },
      "geometry": {
        "type": "Point",
        "coordinates": [
          18.271991740657686,
          -31.734544780943494
        ]
      }
    }
  ]
}